[{"OBJECT_NAME":"STARLINK-1277","OBJECT_ID":"2020-019K","EPOCH":"2026-03-10T00:00:02.999808","MEAN_MOTION":15.48940207,"ECCENTRICITY":0.00040314,"INCLINATION":53.0509,"RA_OF_ASC_NODE":151.1274,"ARG_OF_PERICENTER":12.6993,"MEAN_ANOMALY":253.0952,"EPHEMERIS_TYPE":0,"CLASSIFICATION_TYPE":"U","NORAD_CAT_ID":45369,"ELEMENT_SET_NO":999,"REV_AT_EPOCH":575,"BSTAR":0.002005627,"MEAN_MOTION_DOT":0.00111275,"MEAN_MOTION_DDOT":0},{"OBJECT_NAME":"KOSAR","OBJECT_ID":"2024-199AL","EPOCH":"2026-03-09T21:51:55.749024","MEAN_MOTION":15.47985172,"ECCENTRICITY":0.00039946,"INCLINATION":97.3118,"RA_OF_ASC_NODE":303.4764,"ARG_OF_PERICENTER":300.8911,"MEAN_ANOMALY":59.1946,"EPHEMERIS_TYPE":0,"CLASSIFICATION_TYPE":"U","NORAD_CAT_ID":61769,"ELEMENT_SET_NO":999,"REV_AT_EPOCH":11903,"BSTAR":0.00063195817,"MEAN_MOTION_DOT":0.00033017,"MEAN_MOTION_DDOT":0}]
